METOP-B                 
1 38771U 12049A   26066.12212548  .00000124  00000+0  76748-4 0  9999
2 38771  98.6647 119.5956 0001185 280.0234  80.0809 14.21443608698762
SARAL                   
1 39086U 13009A   26066.15700051  .00000147  00000+0  70093-4 0  9992
2 39086  98.5553 254.0048 0001332 188.4956 171.6206 14.32827414680997
METOP-C                 
1 43689U 18087A   26066.14660075  .00000135  00000+0  81404-4 0  9992
2 43689  98.6770 127.5627 0002181 103.5555 256.5865 14.21495941380339
OTB-3-GAZELLE           
1 54023U 22127A   26065.96643690  .00000107  00000+0  45255-4 0  9992
2 54023  98.3907  59.2523 0013978 133.4155 226.8201 14.42633727179623
EOS-6 (OCEANSAT-3)      
1 54361U 22158A   26066.23703082  .00000408  00000+0  12413-3 0  9997
2 54361  98.3489 165.8191 0000083  88.2715 271.8487 14.47002468173098
KINEIS-1B               
1 60079U 24114A   26066.20216569  .00001466  00000+0  19887-3 0  9997
2 60079  97.9925  90.8457 0003794  78.1933 281.9705 14.80408571 92317
KINEIS-1C               
1 60081U 24114C   26066.16829167  .00001344  00000+0  18296-3 0  9997
2 60081  97.9947  90.6369 0002143 120.6711 239.4712 14.80399352 92286
KINEIS-1D               
1 60082U 24114D   26066.16570363  .00000936  00000+0  14301-3 0  9998
2 60082  97.9970  87.3860 0002365 127.9152 232.2272 14.76107533 92079
KINEIS-1E               
1 60083U 24114E   26066.18522029  .00001371  00000+0  18634-3 0  9994
2 60083  97.9931  90.7350 0002471  89.7947 270.3548 14.80417786 92296
KINEIS-1A               
1 60084U 24114F   26066.15143634  .00001111  00000+0  15225-3 0  9998
2 60084  97.9938  90.8240 0004820  98.1240 262.0519 14.80431400 92298
KINEIS-3C               
1 61220U 24172A   26066.19837251  .00002666  00000+0  42964-3 0  9990
2 61220  98.0295 157.2301 0003524 105.3157 254.8440 14.72300439 78062
KINEIS-3D               
1 61221U 24172B   26066.19172664  .00002691  00000+0  43346-3 0  9994
2 61221  98.0294 157.2346 0002584 110.8152 249.3332 14.72304399 78341
KINEIS-3E               
1 61222U 24172C   26066.17467406  .00002652  00000+0  42747-3 0  9995
2 61222  98.0293 157.2129 0001617 105.9703 254.1683 14.72292332 78349
KINEIS-3A               
1 61223U 24172D   26066.15764676  .00002619  00000+0  42200-3 0  9990
2 61223  98.0286 157.2848 0003033  75.2144 284.9399 14.72319740 77765
KINEIS-3B               
1 61224U 24172E   26065.25716976  .00003052  00000+0  49099-3 0  9996
2 61224  98.0286 156.4287 0003579  69.3326 290.8265 14.72269866 78206
KINEIS-5C               
1 62081U 24219A   26066.18530594  .00001472  00000+0  24031-3 0  9996
2 62081  97.9693 227.6897 0001787 105.7258 254.4147 14.72358262 68746
KINEIS-5D               
1 62082U 24219B   26066.21929431  .00001307  00000+0  21433-3 0  9993
2 62082  97.9605 227.7037 0001105  99.7703 260.3629 14.72336273 68758
