[{"OBJECT_NAME":"METOP-B","OBJECT_ID":"2012-049A","EPOCH":"2026-03-07T02:55:51.641472","MEAN_MOTION":14.21443608,"ECCENTRICITY":0.0001185,"INCLINATION":98.6647,"RA_OF_ASC_NODE":119.5956,"ARG_OF_PERICENTER":280.0234,"MEAN_ANOMALY":80.0809,"EPHEMERIS_TYPE":0,"CLASSIFICATION_TYPE":"U","NORAD_CAT_ID":38771,"ELEMENT_SET_NO":999,"REV_AT_EPOCH":69876,"BSTAR":7.6748e-5,"MEAN_MOTION_DOT":1.24e-6,"MEAN_MOTION_DDOT":0},{"OBJECT_NAME":"SARAL","OBJECT_ID":"2013-009A","EPOCH":"2026-03-07T03:46:04.844064","MEAN_MOTION":14.32827414,"ECCENTRICITY":0.0001332,"INCLINATION":98.5553,"RA_OF_ASC_NODE":254.0048,"ARG_OF_PERICENTER":188.4956,"MEAN_ANOMALY":171.6206,"EPHEMERIS_TYPE":0,"CLASSIFICATION_TYPE":"U","NORAD_CAT_ID":39086,"ELEMENT_SET_NO":999,"REV_AT_EPOCH":68099,"BSTAR":7.0093e-5,"MEAN_MOTION_DOT":1.47e-6,"MEAN_MOTION_DDOT":0},{"OBJECT_NAME":"METOP-C","OBJECT_ID":"2018-087A","EPOCH":"2026-03-07T03:31:06.304800","MEAN_MOTION":14.21495941,"ECCENTRICITY":0.0002181,"INCLINATION":98.677,"RA_OF_ASC_NODE":127.5627,"ARG_OF_PERICENTER":103.5555,"MEAN_ANOMALY":256.5865,"EPHEMERIS_TYPE":0,"CLASSIFICATION_TYPE":"U","NORAD_CAT_ID":43689,"ELEMENT_SET_NO":999,"REV_AT_EPOCH":38033,"BSTAR":8.1404e-5,"MEAN_MOTION_DOT":1.35e-6,"MEAN_MOTION_DDOT":0},{"OBJECT_NAME":"OTB-3-GAZELLE","OBJECT_ID":"2022-127A","EPOCH":"2026-03-06T23:11:40.148160","MEAN_MOTION":14.42633727,"ECCENTRICITY":0.0013978,"INCLINATION":98.3907,"RA_OF_ASC_NODE":59.2523,"ARG_OF_PERICENTER":133.4155,"MEAN_ANOMALY":226.8201,"EPHEMERIS_TYPE":0,"CLASSIFICATION_TYPE":"U","NORAD_CAT_ID":54023,"ELEMENT_SET_NO":999,"REV_AT_EPOCH":17962,"BSTAR":4.5255e-5,"MEAN_MOTION_DOT":1.07e-6,"MEAN_MOTION_DDOT":0},{"OBJECT_NAME":"EOS-6 (OCEANSAT-3)","OBJECT_ID":"2022-158A","EPOCH":"2026-03-07T05:41:19.462848","MEAN_MOTION":14.47002468,"ECCENTRICITY":8.3e-6,"INCLINATION":98.3489,"RA_OF_ASC_NODE":165.8191,"ARG_OF_PERICENTER":88.2715,"MEAN_ANOMALY":271.8487,"EPHEMERIS_TYPE":0,"CLASSIFICATION_TYPE":"U","NORAD_CAT_ID":54361,"ELEMENT_SET_NO":999,"REV_AT_EPOCH":17309,"BSTAR":0.00012413,"MEAN_MOTION_DOT":4.08e-6,"MEAN_MOTION_DDOT":0},{"OBJECT_NAME":"KINEIS-1B","OBJECT_ID":"2024-114A","EPOCH":"2026-03-07T04:51:07.115616","MEAN_MOTION":14.80408571,"ECCENTRICITY":0.0003794,"INCLINATION":97.9925,"RA_OF_ASC_NODE":90.8457,"ARG_OF_PERICENTER":78.1933,"MEAN_ANOMALY":281.9705,"EPHEMERIS_TYPE":0,"CLASSIFICATION_TYPE":"U","NORAD_CAT_ID":60079,"ELEMENT_SET_NO":999,"REV_AT_EPOCH":9231,"BSTAR":0.00019887,"MEAN_MOTION_DOT":1.466e-5,"MEAN_MOTION_DDOT":0},{"OBJECT_NAME":"KINEIS-1C","OBJECT_ID":"2024-114C","EPOCH":"2026-03-07T04:02:20.400288","MEAN_MOTION":14.80399352,"ECCENTRICITY":0.0002143,"INCLINATION":97.9947,"RA_OF_ASC_NODE":90.6369,"ARG_OF_PERICENTER":120.6711,"MEAN_ANOMALY":239.4712,"EPHEMERIS_TYPE":0,"CLASSIFICATION_TYPE":"U","NORAD_CAT_ID":60081,"ELEMENT_SET_NO":999,"REV_AT_EPOCH":9228,"BSTAR":0.00018296,"MEAN_MOTION_DOT":1.344e-5,"MEAN_MOTION_DDOT":0},{"OBJECT_NAME":"KINEIS-1D","OBJECT_ID":"2024-114D","EPOCH":"2026-03-07T03:58:36.793632","MEAN_MOTION":14.76107533,"ECCENTRICITY":0.0002365,"INCLINATION":97.997,"RA_OF_ASC_NODE":87.386,"ARG_OF_PERICENTER":127.9152,"MEAN_ANOMALY":232.2272,"EPHEMERIS_TYPE":0,"CLASSIFICATION_TYPE":"U","NORAD_CAT_ID":60082,"ELEMENT_SET_NO":999,"REV_AT_EPOCH":9207,"BSTAR":0.00014301,"MEAN_MOTION_DOT":9.36e-6,"MEAN_MOTION_DDOT":0},{"OBJECT_NAME":"KINEIS-1E","OBJECT_ID":"2024-114E","EPOCH":"2026-03-07T04:26:43.033056","MEAN_MOTION":14.80417786,"ECCENTRICITY":0.0002471,"INCLINATION":97.9931,"RA_OF_ASC_NODE":90.735,"ARG_OF_PERICENTER":89.7947,"MEAN_ANOMALY":270.3548,"EPHEMERIS_TYPE":0,"CLASSIFICATION_TYPE":"U","NORAD_CAT_ID":60083,"ELEMENT_SET_NO":999,"REV_AT_EPOCH":9229,"BSTAR":0.00018634,"MEAN_MOTION_DOT":1.371e-5,"MEAN_MOTION_DDOT":0},{"OBJECT_NAME":"KINEIS-1A","OBJECT_ID":"2024-114F","EPOCH":"2026-03-07T03:38:04.099776","MEAN_MOTION":14.804314,"ECCENTRICITY":0.000482,"INCLINATION":97.9938,"RA_OF_ASC_NODE":90.824,"ARG_OF_PERICENTER":98.124,"MEAN_ANOMALY":262.0519,"EPHEMERIS_TYPE":0,"CLASSIFICATION_TYPE":"U","NORAD_CAT_ID":60084,"ELEMENT_SET_NO":999,"REV_AT_EPOCH":9229,"BSTAR":0.00015225,"MEAN_MOTION_DOT":1.111e-5,"MEAN_MOTION_DDOT":0},{"OBJECT_NAME":"KINEIS-3C","OBJECT_ID":"2024-172A","EPOCH":"2026-03-07T04:45:39.384864","MEAN_MOTION":14.72300439,"ECCENTRICITY":0.0003524,"INCLINATION":98.0295,"RA_OF_ASC_NODE":157.2301,"ARG_OF_PERICENTER":105.3157,"MEAN_ANOMALY":254.844,"EPHEMERIS_TYPE":0,"CLASSIFICATION_TYPE":"U","NORAD_CAT_ID":61220,"ELEMENT_SET_NO":999,"REV_AT_EPOCH":7806,"BSTAR":0.00042964,"MEAN_MOTION_DOT":2.666e-5,"MEAN_MOTION_DDOT":0},{"OBJECT_NAME":"KINEIS-3D","OBJECT_ID":"2024-172B","EPOCH":"2026-03-07T04:36:05.181696","MEAN_MOTION":14.72304399,"ECCENTRICITY":0.0002584,"INCLINATION":98.0294,"RA_OF_ASC_NODE":157.2346,"ARG_OF_PERICENTER":110.8152,"MEAN_ANOMALY":249.3332,"EPHEMERIS_TYPE":0,"CLASSIFICATION_TYPE":"U","NORAD_CAT_ID":61221,"ELEMENT_SET_NO":999,"REV_AT_EPOCH":7834,"BSTAR":0.00043346,"MEAN_MOTION_DOT":2.691e-5,"MEAN_MOTION_DDOT":0},{"OBJECT_NAME":"KINEIS-3E","OBJECT_ID":"2024-172C","EPOCH":"2026-03-07T04:11:31.838784","MEAN_MOTION":14.72292332,"ECCENTRICITY":0.0001617,"INCLINATION":98.0293,"RA_OF_ASC_NODE":157.2129,"ARG_OF_PERICENTER":105.9703,"MEAN_ANOMALY":254.1683,"EPHEMERIS_TYPE":0,"CLASSIFICATION_TYPE":"U","NORAD_CAT_ID":61222,"ELEMENT_SET_NO":999,"REV_AT_EPOCH":7834,"BSTAR":0.00042747,"MEAN_MOTION_DOT":2.652e-5,"MEAN_MOTION_DDOT":0},{"OBJECT_NAME":"KINEIS-3A","OBJECT_ID":"2024-172D","EPOCH":"2026-03-07T03:47:00.680064","MEAN_MOTION":14.7231974,"ECCENTRICITY":0.0003033,"INCLINATION":98.0286,"RA_OF_ASC_NODE":157.2848,"ARG_OF_PERICENTER":75.2144,"MEAN_ANOMALY":284.9399,"EPHEMERIS_TYPE":0,"CLASSIFICATION_TYPE":"U","NORAD_CAT_ID":61223,"ELEMENT_SET_NO":999,"REV_AT_EPOCH":7776,"BSTAR":0.000422,"MEAN_MOTION_DOT":2.619e-5,"MEAN_MOTION_DDOT":0},{"OBJECT_NAME":"KINEIS-3B","OBJECT_ID":"2024-172E","EPOCH":"2026-03-06T06:10:19.467264","MEAN_MOTION":14.72269866,"ECCENTRICITY":0.00035797,"INCLINATION":98.0286,"RA_OF_ASC_NODE":156.4287,"ARG_OF_PERICENTER":69.3326,"MEAN_ANOMALY":290.8265,"EPHEMERIS_TYPE":0,"CLASSIFICATION_TYPE":"U","NORAD_CAT_ID":61224,"ELEMENT_SET_NO":999,"REV_AT_EPOCH":7820,"BSTAR":0.0004909929,"MEAN_MOTION_DOT":3.052e-5,"MEAN_MOTION_DDOT":0},{"OBJECT_NAME":"KINEIS-5C","OBJECT_ID":"2024-219A","EPOCH":"2026-03-07T04:26:50.433216","MEAN_MOTION":14.72358262,"ECCENTRICITY":0.0001787,"INCLINATION":97.9693,"RA_OF_ASC_NODE":227.6897,"ARG_OF_PERICENTER":105.7258,"MEAN_ANOMALY":254.4147,"EPHEMERIS_TYPE":0,"CLASSIFICATION_TYPE":"U","NORAD_CAT_ID":62081,"ELEMENT_SET_NO":999,"REV_AT_EPOCH":6874,"BSTAR":0.00024031,"MEAN_MOTION_DOT":1.472e-5,"MEAN_MOTION_DDOT":0},{"OBJECT_NAME":"KINEIS-5D","OBJECT_ID":"2024-219B","EPOCH":"2026-03-07T05:15:47.028384","MEAN_MOTION":14.72336273,"ECCENTRICITY":0.0001105,"INCLINATION":97.9605,"RA_OF_ASC_NODE":227.7037,"ARG_OF_PERICENTER":99.7703,"MEAN_ANOMALY":260.3629,"EPHEMERIS_TYPE":0,"CLASSIFICATION_TYPE":"U","NORAD_CAT_ID":62082,"ELEMENT_SET_NO":999,"REV_AT_EPOCH":6875,"BSTAR":0.00021433,"MEAN_MOTION_DOT":1.307e-5,"MEAN_MOTION_DDOT":0}]
